{
    "links": {
        "self": "http://www.neowsapp.com/rest/v1/neo/3879270?api_key=iIulBulltgU6a56xZRHN4H3l9WmuAYTsLGpBGhQ2"
    },
    "id": "3879270",
    "neo_reference_id": "3879270",
    "name": "(2019 UQ1)",
    "designation": "2019 UQ1",
    "nasa_jpl_url": "http://ssd.jpl.nasa.gov/sbdb.cgi?sstr=3879270",
    "absolute_magnitude_h": 25.8,
    "estimated_diameter": {
        "kilometers": {
            "estimated_diameter_min": 0.0183888672,
            "estimated_diameter_max": 0.0411187571
        },
        "meters": {
            "estimated_diameter_min": 18.388867207,
            "estimated_diameter_max": 41.1187571041
        },
        "miles": {
            "estimated_diameter_min": 0.0114263088,
            "estimated_diameter_max": 0.0255500032
        },
        "feet": {
            "estimated_diameter_min": 60.3309310875,
            "estimated_diameter_max": 134.9040630575
        }
    },
    "is_potentially_hazardous_asteroid": false,
    "close_approach_data": [
        {
            "close_approach_date": "2019-10-11",
            "close_approach_date_full": "2019-Oct-11 04:11",
            "epoch_date_close_approach": 1570767060000,
            "relative_velocity": {
                "kilometers_per_second": "6.5178029551",
                "kilometers_per_hour": "23464.0906382131",
                "miles_per_hour": "14579.6734301719"
            },
            "miss_distance": {
                "astronomical": "0.1046554727",
                "lunar": "40.7109788803",
                "kilometers": "15656235.799763149",
                "miles": "9728333.8171394962"
            },
            "orbiting_body": "Earth"
        }
    ],
    "orbital_data": {
        "orbit_id": "2",
        "orbit_determination_date": "2019-10-31 07:11:03",
        "first_observation_date": "2019-10-19",
        "last_observation_date": "2019-10-31",
        "data_arc_in_days": 12,
        "observations_used": 19,
        "orbit_uncertainty": "9",
        "minimum_orbit_intersection": ".102518",
        "jupiter_tisserand_invariant": "3.182",
        "epoch_osculation": "2458776.5",
        "eccentricity": ".5702313607440577",
        "semi_major_axis": "2.558007023794698",
        "inclination": "4.65713010737851",
        "ascending_node_longitude": "209.4095429617847",
        "orbital_period": "1494.345519678943",
        "perihelion_distance": "1.09935119782339",
        "perihelion_argument": "164.7297053699478",
        "aphelion_distance": "4.016662849766005",
        "perihelion_time": "2458765.720018352598",
        "mean_anomaly": "2.596985330339467",
        "mean_motion": ".2409081402253914",
        "equinox": "J2000",
        "orbit_class": {
            "orbit_class_type": "AMO",
            "orbit_class_description": "Near-Earth asteroid orbits similar to that of 1221 Amor",
            "orbit_class_range": "1.017 AU < q (perihelion) < 1.3 AU"
        }
    },
    "is_sentry_object": false
}